[{"OBJECT_NAME":"ONEWEB-0704","OBJECT_ID":"2024-188R","EPOCH":"2025-09-07T00:17:34.046304","MEAN_MOTION":13.10373997,"ECCENTRICITY":0.00013694,"INCLINATION":87.8767,"RA_OF_ASC_NODE":92.6824,"ARG_OF_PERICENTER":121.4815,"MEAN_ANOMALY":238.6447,"EPHEMERIS_TYPE":0,"CLASSIFICATION_TYPE":"U","NORAD_CAT_ID":61609,"ELEMENT_SET_NO":999,"REV_AT_EPOCH":4620,"BSTAR":0.0020593654,"MEAN_MOTION_DOT":7.32e-6,"MEAN_MOTION_DDOT":0},{"OBJECT_NAME":"ONEWEB-0705","OBJECT_ID":"2024-188S","EPOCH":"2025-09-07T02:14:41.862912","MEAN_MOTION":13.10372657,"ECCENTRICITY":0.00024054,"INCLINATION":87.8745,"RA_OF_ASC_NODE":92.7005,"ARG_OF_PERICENTER":112.7424,"MEAN_ANOMALY":247.3957,"EPHEMERIS_TYPE":0,"CLASSIFICATION_TYPE":"U","NORAD_CAT_ID":61610,"ELEMENT_SET_NO":999,"REV_AT_EPOCH":3838,"BSTAR":0.0020953285,"MEAN_MOTION_DOT":7.44e-6,"MEAN_MOTION_DDOT":0},{"OBJECT_NAME":"ONEWEB-0706","OBJECT_ID":"2024-188T","EPOCH":"2025-09-07T00:03:13.924800","MEAN_MOTION":13.10377633,"ECCENTRICITY":0.00016199,"INCLINATION":87.875,"RA_OF_ASC_NODE":92.7466,"ARG_OF_PERICENTER":108.1336,"MEAN_ANOMALY":251.9968,"EPHEMERIS_TYPE":0,"CLASSIFICATION_TYPE":"U","NORAD_CAT_ID":61611,"ELEMENT_SET_NO":999,"REV_AT_EPOCH":4629,"BSTAR":0.001013494,"MEAN_MOTION_DOT":3.66e-6,"MEAN_MOTION_DDOT":0},{"OBJECT_NAME":"ONEWEB-0707","OBJECT_ID":"2024-188U","EPOCH":"2025-09-07T02:02:44.805984","MEAN_MOTION":13.10372775,"ECCENTRICITY":0.00015213,"INCLINATION":87.8753,"RA_OF_ASC_NODE":92.6961,"ARG_OF_PERICENTER":107.2199,"MEAN_ANOMALY":252.9095,"EPHEMERIS_TYPE":0,"CLASSIFICATION_TYPE":"U","NORAD_CAT_ID":61612,"ELEMENT_SET_NO":999,"REV_AT_EPOCH":4624,"BSTAR":0.0017073995,"MEAN_MOTION_DOT":6.09e-6,"MEAN_MOTION_DDOT":0},{"OBJECT_NAME":"ONEWEB-0708","OBJECT_ID":"2024-188V","EPOCH":"2025-09-07T06:08:56.635584","MEAN_MOTION":13.10370474,"ECCENTRICITY":0.00020074,"INCLINATION":87.8766,"RA_OF_ASC_NODE":92.7016,"ARG_OF_PERICENTER":108.1195,"MEAN_ANOMALY":252.0151,"EPHEMERIS_TYPE":0,"CLASSIFICATION_TYPE":"U","NORAD_CAT_ID":61613,"ELEMENT_SET_NO":999,"REV_AT_EPOCH":4624,"BSTAR":0.0013638966,"MEAN_MOTION_DOT":4.89e-6,"MEAN_MOTION_DDOT":0}]
