ONEWEB-0704             
1 61609U 24188R   25250.01219961  .00000732  00000+0  20594-2 0  9991
2 61609  87.8767  92.6824 0001369 121.4815 238.6447 13.10373997 46208
ONEWEB-0705             
1 61610U 24188S   25250.09354008  .00000744  00000+0  20953-2 0  9995
2 61610  87.8745  92.7005 0002405 112.7424 247.3957 13.10372657 38384
ONEWEB-0706             
1 61611U 24188T   25250.00224450  .00000366  00000+0  10135-2 0  9995
2 61611  87.8750  92.7466 0001619 108.1336 251.9968 13.10377633 46290
ONEWEB-0707             
1 61612U 24188U   25250.08524081  .00000609  00000+0  17074-2 0  9996
2 61612  87.8753  92.6961 0001521 107.2199 252.9095 13.10372775 46241
ONEWEB-0708             
1 61613U 24188V   25250.25621106  .00000489  00000+0  13639-2 0  9991
2 61613  87.8766  92.7016 0002007 108.1195 252.0151 13.10370474 46242
